NORAD_CAT_ID,OBJECT_NAME,OBJECT_TYPE,EPOCH,MEAN_MOTION,ECCENTRICITY,INCLINATION,RA_OF_ASC_NODE,ARG_OF_PERICENTER,MEAN_ANOMALY,BSTAR,MEAN_MOTION_DOT,MEAN_MOTION_DDOT,TLE_LINE0,TLE_LINE1,TLE_LINE2,SEMIMAJOR_AXIS,PERIOD,APOGEE,PERIGEE,DECAYED
50158.0,STARLINK-3309,PAYLOAD,2023-01-23 13:55:48,15.0882875,0.000123,53.2136,341.7715,82.3236,277.7896,0.0004184,6.375e-05,0.0,0 STARLINK-3309,1 50158U 21125C   23023.58042388  .00006375  00000-0  41840-3 0  9999,2 50158  53.2136 341.7715 0001230  82.3236 277.7896 15.08828750 61107,6917.915,95.438,540.631,538.929,0.0
50158.0,STARLINK-3309,PAYLOAD,2023-01-24 02:38:53,15.08848831,0.0001351999999999,53.2143,339.3921,84.1127,276.002,0.00078321,0.00012202,0.0,0 STARLINK-3309,1 50158U 21125C   23024.11034246  .00012202  00000-0  78321-3 0  9993,2 50158  53.2143 339.3921 0001352  84.1127 276.0020 15.08848831 61182,6917.853,95.437,540.654,538.783,0.0
50158.0,STARLINK-3309,PAYLOAD,2023-01-24 07:25:02,15.08869369,0.0001568,53.2145,338.5004,82.79299999999999,277.3241,0.0014506999999999,0.00022894,0.0,0 STARLINK-3309,1 50158U 21125C   23024.30905886  .00022894  00000-0  14507-2 0  9994,2 50158  53.2145 338.5004 0001568  82.7930 277.3241 15.08869369 61214,6917.791,95.436,540.74,538.571,0.0
50158.0,STARLINK-3309,PAYLOAD,2023-01-24 20:08:07,15.08850195,0.0001694,53.2134,336.1248,76.22,283.898,0.00084131,0.00013131,0.0,0 STARLINK-3309,1 50158U 21125C   23024.83898101  .00013131  00000-0  84131-3 0  9998,2 50158  53.2134 336.1248 0001694  76.2200 283.8980 15.08850195 61291,6917.849,95.437,540.886,538.5419999999999,0.0
50158.0,STARLINK-3309,PAYLOAD,2023-01-25 05:40:26,15.08851992,9.12e-05,53.2136,334.3376,82.0374,278.0721,0.0013675,0.0002154999999999,0.0,0 STARLINK-3309,1 50158U 21125C   23025.23641970  .00021550  00000-0  13675-2 0  9991,2 50158  53.2136 334.3376 0000912  82.0374 278.0721 15.08851992 61356,6917.844,95.437,540.34,539.078,0.0
50158.0,STARLINK-3309,PAYLOAD,2023-01-25 19:58:55,15.08849823,0.0001202,53.2135,331.6619,79.5266,280.5861,0.0014712999999999,0.00023212,0.0,0 STARLINK-3309,1 50158U 21125C   23025.83258461  .00023212  00000-0  14713-2 0  9997,2 50158  53.2135 331.6619 0001202  79.5266 280.5861 15.08849823 61442,6917.85,95.437,540.547,538.884,0.0
50158.0,STARLINK-3309,PAYLOAD,2023-01-26 02:20:27,15.08854006,0.0001129,53.2142,330.4716,81.3108,278.8012,0.0014524,0.00022911,0.0,0 STARLINK-3309,1 50158U 21125C   23026.09754337  .00022911  00000-0  14524-2 0  9994,2 50158  53.2142 330.4716 0001129  81.3108 278.8012 15.08854006 64630,6917.838000000001,95.437,540.484,538.922,0.0
50158.0,STARLINK-3309,PAYLOAD,2023-01-27 02:11:14,15.0885446,0.0001144,53.2138,326.0103,69.7215,290.39,0.00090481,0.00014147,0.0,0 STARLINK-3309,1 50158U 21125C   23027.09114150  .00014147  00000-0  90481-3 0  9997,2 50158  53.2138 326.0103 0001144  69.7215 290.3900 15.08854460 61638,6917.835999999999,95.437,540.493,538.91,0.0
50158.0,STARLINK-3309,PAYLOAD,2023-01-27 05:22:00,15.08861536,0.0001010999999999,53.2136,325.4153,78.987,281.1235,0.0009182,0.00014364,0.0,0 STARLINK-3309,1 50158U 21125C   23027.22361832  .00014364  00000-0  91820-3 0  9992,2 50158  53.2136 325.4153 0001011  78.9870 281.1235 15.08861536 64809,6917.815,95.436,540.379,538.98,0.0
50158.0,STARLINK-3309,PAYLOAD,2023-01-27 19:40:29,15.08838997,0.0001079,53.2137,322.7383,91.7106,268.4009,0.00052048,8.005e-05,0.0,0 STARLINK-3309,1 50158U 21125C   23027.81978222  .00008005  00000-0  52048-3 0  9998,2 50158  53.2137 322.7383 0001079  91.7106 268.4009 15.08838997 61746,6917.883000000001,95.438,540.495,539.002,0.0
50158.0,STARLINK-3309,PAYLOAD,2023-01-28 05:12:48,15.08844837,0.000132,53.2138,320.9536,89.189,270.9254,0.00087673,0.00013695,0.0,0 STARLINK-3309,1 50158U 21125C   23028.21722398  .00013695  00000-0  87673-3 0  9997,2 50158  53.2138 320.9536 0001320  89.1890 270.9254 15.08844837 64953,6917.866,95.437,540.644,538.817,0.0
50158.0,STARLINK-3309,PAYLOAD,2023-01-28 19:31:16,15.08839156,0.0001424,53.2141,318.2764,89.3209,270.7946,0.00061221,9.469e-05,0.0,0 STARLINK-3309,1 50158U 21125C   23028.81338500  .00009469  00000-0  61221-3 0  9996,2 50158  53.2141 318.2764 0001424  89.3209 270.7946 15.08839156 61895,6917.883,95.438,540.733,538.763,0.0
50158.0,STARLINK-3309,PAYLOAD,2023-01-29 05:03:34,15.08860469,0.0001394,53.2136,316.4943,75.1239,284.9907,0.00098632,0.00015453,0.0,0 STARLINK-3309,1 50158U 21125C   23029.21082058  .00015453  00000-0  98632-3 0  9991,2 50158  53.2136 316.4943 0001394  75.1239 284.9907 15.08860469 61952,6917.818,95.436,540.647,538.718,0.0
50158.0,STARLINK-3309,PAYLOAD,2023-01-29 19:22:03,15.08843184,0.0001031,53.2134,313.8159,76.2812,283.8295,0.00034469,5.203e-05,0.0,0 STARLINK-3309,1 50158U 21125C   23029.80698221  .00005203  00000-0  34469-3 0  9991,2 50158  53.2134 313.8159 0001031  76.2812 283.8295 15.08843184 62041,6917.871,95.437,540.449,539.022,0.0
50158.0,STARLINK-3309,PAYLOAD,2023-01-30 03:18:58,15.08852905,0.0001394,53.214,312.3314,84.6158,275.4993,0.00034963,5.283e-05,0.0,0 STARLINK-3309,1 50158U 21125C   23030.13817897  .00005283  00000-0  34963-3 0  9998,2 50158  53.2140 312.3314 0001394  84.6158 275.4993 15.08852905 65241,6917.841,95.437,540.67,538.742,0.0
50158.0,STARLINK-3309,PAYLOAD,2023-01-30 19:12:50,15.0884028,0.000129,53.2135,309.357,92.1892,267.9248,0.00015388,2.162e-05,0.0,0 STARLINK-3309,1 50158U 21125C   23030.80058152  .00002162  00000-0  15388-3 0  9996,2 50158  53.2135 309.3570 0001290  92.1892 267.9248 15.08840280 62192,6917.88,95.438,540.637,538.852,0.0
50158.0,STARLINK-3309,PAYLOAD,2023-01-30 22:23:36,15.08840745,0.0001268,53.2135,308.7622,95.233,264.8807,0.00021842,3.19e-05,0.0,0 STARLINK-3309,1 50158U 21125C   23030.93306174  .00003190  00000-0  21842-3 0  9994,2 50158  53.2135 308.7622 0001268  95.2330 264.8807 15.08840745 65364,6917.878,95.438,540.62,538.866,0.0
50158.0,STARLINK-3309,PAYLOAD,2023-01-31 04:45:09,15.08848879,0.0001237,53.2138,307.5726,88.6152,271.4982,0.00049626,7.621e-05,0.0,0 STARLINK-3309,1 50158U 21125C   23031.19802120  .00007621  00000-0  49626-3 0  9998,2 50158  53.2138 307.5726 0001237  88.6152 271.4982 15.08848879 65402,6917.853,95.437,540.574,538.863,0.0
50158.0,STARLINK-3309,PAYLOAD,2023-02-01 03:00:32,15.08853,0.000121,53.2131,303.4094,92.2403,267.8727,0.00041436,6.315e-05,0.0,0 STARLINK-3309,1 50158U 21125C   23032.12537735  .00006315  00000-0  41436-3 0  9999,2 50158  53.2131 303.4094 0001210  92.2403 267.8727 15.08853000 62392,6917.841,95.437,540.543,538.869,0.0
50158.0,STARLINK-3309,PAYLOAD,2023-02-02 02:51:19,15.08838065,0.0001066,53.2134,298.9458,108.5556,251.5552,0.00020233,2.934e-05,0.0,0 STARLINK-3309,1 50158U 21125C   23033.11898102  .00002934  00000-0  20233-3 0  9992,2 50158  53.2134 298.9458 0001066 108.5556 251.5552 15.08838065 62543,6917.886,95.438,540.489,539.014,0.0
50158.0,STARLINK-3309,PAYLOAD,2023-02-03 02:42:07,15.08844753,0.00015,53.213,294.4892,70.5917,289.5237,0.00039828,6.057e-05,0.0,0 STARLINK-3309,1 50158U 21125C   23034.11258447  .00006057  00000-0  39828-3 0  9995,2 50158  53.2130 294.4892 0001500  70.5917 289.5237 15.08844753 65842,6917.866,95.437,540.769,538.693,0.0
50158.0,STARLINK-3309,PAYLOAD,2023-02-03 17:00:35,15.08836286,0.0002051,53.2114,291.8129,75.001,285.1209,0.00015694,2.21e-05,0.0,0 STARLINK-3309,1 50158U 21125C   23034.70874856  .00002210  00000-0  15694-3 0  9990,2 50158  53.2114 291.8129 0002051  75.0010 285.1209 15.08836286 62787,6917.892,95.438,541.176,538.338,0.0
50158.0,STARLINK-3309,PAYLOAD,2023-02-04 20:02:10,15.08810261,0.0001967,53.2124,286.7564,73.5185,286.6023,0.0013492,0.00021232,0.0,0 STARLINK-3309,1 50158U 21125C   23035.83484221  .00021232  00000-0  13492-2 0  9996,2 50158  53.2124 286.7564 0001967  73.5185 286.6023 15.08810261 62959,6917.971,95.439,541.197,538.476,0.0
50158.0,STARLINK-3309,PAYLOAD,2023-02-04 21:37:31,15.08852263,0.0001731,53.2122,286.4591,76.3537,283.7648,0.00018814,2.708e-05,0.0,0 STARLINK-3309,1 50158U 21125C   23035.90106326  .00002708  00000-0  18814-3 0  9992,2 50158  53.2122 286.4591 0001731  76.3537 283.7648 15.08852263 66116,6917.843,95.437,540.905,538.51,0.0
50158.0,STARLINK-3309,PAYLOAD,2023-02-05 02:23:41,15.08853539,0.0001639,53.2127,285.5651,85.4061,274.7118,0.00047565,7.293e-05,0.0,0 STARLINK-3309,1 50158U 21125C   23036.09978348  .00007293  00000-0  47565-3 0  9993,2 50158  53.2127 285.5651 0001639  85.4061 274.7118 15.08853539 62999,6917.839,95.437,540.838,538.57,0.0
50158.0,STARLINK-3309,PAYLOAD,2023-02-05 19:52:56,15.088391,0.0001248,53.2128,282.2946,86.2579,273.8556,1.8996e-05,1.4e-07,0.0,0 STARLINK-3309,1 50158U 21125C   23036.82842785  .00000014  00000-0  18996-4 0  9990,2 50158  53.2128 282.2946 0001248  86.2579 273.8556 15.08839100 63108,6917.883,95.438,540.611,538.885,0.0
50158.0,STARLINK-3309,PAYLOAD,2023-02-05 23:03:42,15.08842477,0.000126,53.2124,281.7006,79.5132,280.6002,0.00011402,1.527e-05,0.0,0 STARLINK-3309,1 50158U 21125C   23036.96090651  .00001527  00000-0  11402-3 0  9996,2 50158  53.2124 281.7006 0001260  79.5132 280.6002 15.08842477 66273,6917.873,95.437,540.609,538.866,0.0
50158.0,STARLINK-3309,PAYLOAD,2023-02-06 02:14:28,15.0884554,0.0001254,53.2126,281.1056,80.2597,279.8537,0.00025069,3.705e-05,0.0,0 STARLINK-3309,1 50158U 21125C   23037.09338610  .00003705  00000-0  25069-3 0  9995,2 50158  53.2126 281.1056 0001254  80.2597 279.8537 15.08845540 66290,6917.863,95.437,540.596,538.861,0.0
50158.0,STARLINK-3309,PAYLOAD,2023-02-06 22:54:29,15.08853031,0.0001252,53.2117,277.2401,81.9318,278.1816,0.00071582,0.00011127,0.0,0 STARLINK-3309,1 50158U 21125C   23037.95450434  .00011127  00000-0  71582-3 0  9997,2 50158  53.2117 277.2401 0001252  81.9318 278.1816 15.08853031 66428,6917.841,95.437,540.572,538.839,0.0
50158.0,STARLINK-3309,PAYLOAD,2023-02-07 00:29:52,15.08857995,0.0001209,53.2118,276.9426,84.5374,275.5756,0.00074779,0.00011639,0.0,0 STARLINK-3309,1 50158U 21125C   23038.02074364  .00011639  00000-0  74779-3 0  9999,2 50158  53.2118 276.9426 0001209  84.5374 275.5756 15.08857995 63283,6917.825,95.436,540.527,538.854,0.0
